1 63229U 25052V   26137.43474183  .00003249  00000-0  14454-3 0  9998
2 63229  97.3986  30.4759 0002983 252.7937 107.2973 15.22191826 65165